#dP2021  2 11  0  0  0.00000000      96 __u+U ITR00 FIT  IAC
## 2144 345600.00000000   900.00000000 59256 0.0000000000000
+  125   C01C03C04C05C06C07C08C09C10C11C12C13C14C16C19C20C21
+        C22C23C24C25C26C27C28C29C30C32C33C34C35C36C37C38C39
+        C40C41C42C43C44C45C46C60E01E02E03E04E05E07E08E09E11
+        E12E13E14E15E18E19E21E24E25E26E27E30E31E33E36G01G02
+        G03G04G05G06G07G08G09G10G11G12G13G14G15G16G17G18G19
+        G20G21G22G23G24G25G26G27G28G29G30G31G32J01J02J03R01
+        R02R03R04R05R06R07R08R09R10R11R12R13R14R15R16R17R18
+        R19R20R21R22R23R24  0  0  0  0  0  0  0  0  0  0  0
++        13 15 13 13  9  9 10  9  9  9  9 10  8  9  8  8  8
++         8  8  8  8  8  8  8  8  8  8  8  8  8  9  8 10  9
++         9  9  9  9  9  9  9 17  5  4  4  5  5  4  4  5  5
++         4  4  4  5  5  5  4  4  4  4  4  5  5  4  5  3  4
++         4  4  4  4  4  4  4  4  4  4  4  4  4  4  4  4  4
++         4  4  4  4  3  4  4  4  4  4  4  4  4  9  9  9  7
++         6  6  5  5 13  6  6  7 13  7  6  6  6  6  6  6  6
++         6  6  6  7 13  6  0  0  0  0  0  0  0  0  0  0  0
%c M  cc GPS ccc cccc cccc cccc cccc ccccc ccccc ccccc ccccc
%c cc cc ccc ccc cccc cccc cccc cccc ccccc ccccc ccccc ccccc
%f  0.0000000  0.000000000  0.00000000000  0.000000000000000
%f  0.0000000  0.000000000  0.00000000000  0.000000000000000
%i    0    0    0    0      0      0      0      0         0
%i    0    0    0    0      0      0      0      0         0
/* INFORMATION & ANALYSIS CENTER (IAC)            RAPID DATA
/* S/V CLOCKS ARE ALIGNED TO GNSS TIME                      
/* G:C1WC2W R:C1PC2P E:C1XC5X C:C2IC6I J:C1CC2S             
/* PCV:IGS14_2134 OL/AL:FES2004  NONE     YN ORB:CoN CLK:CoN
*  2021 02 11  1 30  0.00000000
PC01 -34356.387868  24443.084465    -39.057142   -723.719864
PC03 -14780.915822  39522.561922   -605.658075   -466.010325
PC04 -39645.634556  14324.775847   -689.874889   -361.019764
PC05  21894.674223  36033.782609    733.512329   -731.837593
PC06 -12435.350095  21974.118545  34156.429196     80.905902
PC07 -22669.419641  34926.601346  -7880.175419   -314.433213
PC08  -6459.586455  33164.664087 -24850.078323   -916.248635
PC09   3487.297373  26305.300228  33118.113827    741.821937
PC10 -11517.014355  36022.201126 -18864.763557    -88.541915
PC11  25501.205819   5010.966057  10180.776784   -930.638924
PC12  21764.476840  15752.067218  -7475.237853    789.703974
PC13   3533.980410  40165.139863 -11742.048795    136.312178
PC14  23779.580826  -5386.622595  13552.762373    107.604457
PC16 -10908.133502  21869.932142  34434.635526   -691.292000
PC19 -24154.880340  13079.216340  -4935.115698    723.473353
PC20 -20332.313673  -1655.470104 -19037.574108   -914.426334
PC21   4093.553883  16139.401976  22414.480494   -832.597459
PC22 -14137.239037  20622.016506  12423.259997   -875.264985
PC23   5526.939881 -25198.498994 -10655.181909   -876.412794
PC24  15271.026206  12354.497205 -19822.784004   -757.988066
PC25  14396.876815 -10214.344724 -21626.220718   -929.125466
PC26   7962.788544  25749.282856  -7166.436085    950.244352
PC27 -14076.266715 -18532.607803  15370.324896    481.311985
PC28   5637.947082 -14865.152057  22940.077525   -110.979389
PC29 -21867.694146   3343.212452 -17010.529285    350.762028
PC30 -25762.078250 -10669.105161   -694.701060    443.218653
PC32  -4213.864908 -16105.585254 -22380.896399   -892.938207
PC33  24104.886202 -13110.037492   5052.265871   -961.106654
PC34  25904.815868  10330.353463   1345.066704   -742.776530
PC35  -5428.562382  14992.739028 -22903.029107   -423.687030
PC36 -14736.081775   9478.894181  21736.087133   -758.237191
PC37  -6863.161649 -26299.214799   6391.963199   -864.161269
PC38  -5994.345252  35193.175815 -22308.855708    129.326409
PC39  -8798.360461  22668.209780  34444.044836     28.341534
PC40 -19262.705614  32866.866001 -18215.798691    130.333206
PC41  14311.914511 -20635.432647 -12134.182603   -930.343607
PC42  19936.122003   2333.495545  19425.679166   -859.543220
PC43  22220.053278  -2940.085466  16638.742179   -592.388768
PC44  14496.442688  18176.621427 -15464.678075     32.481377
PC45  -5373.511175  25215.408861  10643.230287    358.971495
PC46 -15373.894092 -11504.553178  20263.707088    410.967036
PC60   7315.754572  41487.323368  -1903.929548     -1.012311
PE01 -17402.678867    238.609630  23938.691617  -1043.579486
PE02  17448.999034   -400.737365 -23914.396740    197.531274
PE03  28789.095229    560.049500   6833.370934   -397.280291
PE04 -24644.202433  11827.438260  11355.877499   -707.307939
PE05  16100.638300  12805.288034  21282.929268   -305.559796
PE07   5853.643657 -17457.138528 -23172.537566   -499.277087
PE08  24391.581480 -12043.082450 -11660.520510   6048.777370
PE09  -5627.442458  17356.377398  23311.590871   5769.442407
PE11   3454.411227  23141.853743 -18139.967858   6339.043459
PE12 -13651.775668   8883.722697 -24706.368904   5362.180601
PE13  -3189.796321 -22913.931784  18472.014897    411.860310
PE14  17024.769397  -9153.989953  13607.130875  -1325.725678
PE15  13557.358956  -8904.570397  24773.840999    829.905696
PE18 -17193.740480  16164.983819 -22365.815883  -1449.193991
PE19 -28138.057520  -2085.551481  -8937.887670    200.768446
PE21  -7699.938925 -19238.665194  21137.153479   -647.788700
PE24  -7345.196464  28152.234247  -5370.275473   -737.169701
PE25   7588.676915  19366.126298 -21052.831494   -526.186606
PE26 -18284.618262 -23270.500121    612.205212   2162.238721
PE27   6792.495518 -28194.745297   5969.775845     32.426835
PE30  17562.635584 -19825.276207 -13251.062875   3190.984324
PE31 -17203.751732  20511.627365  12620.911636   -478.178013
PE33 -22298.499625 -10329.920100 -16480.201701   -465.595347
PE36  18051.996974  23427.336402  -1295.778940    442.262249
PG01  17123.196067   5751.642020  19349.314383    763.645745
PG02 -13886.699792 -22582.518688   -688.355675   -575.581391
PG03  18741.665381  -6319.769344  17597.552473    -79.771211
PG04  26501.554857   1427.155543  -1609.573860   -179.364528
PG05 -10078.534946 -12404.343414 -21340.283607    -33.371766
PG06  -4070.058162 -24045.205775  10524.617251     -3.161923
PG07  11666.292907 -10392.997726 -21088.452108     54.381348
PG08  25542.588678   5202.847724  -5852.904091     -9.860200
PG09  22169.282020  -7818.239504 -12445.147168   -321.730732
PG10 -10653.612181  23468.927691   5909.728235    -58.844749
PG11  23217.784204   8454.930841   8806.200904    -28.049969
PG12 -17609.355207   1101.917771  19555.546582      0.584332
PG13 -18831.455182 -13181.033954 -13549.195192     95.827078
PG14  12926.889255 -22786.118645   4343.686341     95.918006
PG15 -26002.942341  -3061.206627  -5831.890311   -170.246845
PG16   7235.024204  14170.600388 -21420.780580   -278.297437
PG17   6673.326051 -13960.586633  22017.591145    392.067028
PG18  -9479.142043  13561.876058 -20767.967745    346.682878
PG19  -2307.442998 -14991.314429  21531.607535    -40.113800
PG20 -15426.682560  20265.716507  -7075.521072    524.753472
PG21  19257.531844  12157.665885  14750.135529     94.542773
PG22  16179.487050   2779.683720  21052.973218   -681.652796
PG23 -16671.471845  20055.815946  -4936.959886    118.262379
PG24 -19092.225303  -9818.673589  15640.652500      2.472520
PG25 -18828.825122  15064.013736  10557.515850     78.018320
PG26   -290.638165  21695.769215 -15188.926237     43.113915
PG27  17060.798327  12293.676724 -16600.910880    -73.912077
PG28  11333.562569 -22876.846073   8227.306954    617.294948
PG29 -22809.296035   5346.448212 -12592.823320   -292.677150
PG30   3360.652908 -20790.246994 -16005.325992   -382.873003
PG31   5391.891673  24553.847017   7721.127024    -99.347148
PG32  -4657.319054  14929.360970  21546.153056     18.289456
PJ01 -30294.787823  28411.996625  12524.329698   -340.277147
PJ02 -30119.953664  25714.455939  19350.852916      1.725725
PJ03 -27301.354003  16615.253385 -22888.405901     -0.627113
PR01  -8051.883287  -8272.238795 -22747.180207     74.816465
PR02 -22642.209760   4741.272264 -10639.584166    466.547858
PR03 -20792.993728  13097.812655   6777.073001     30.642720
PR04  -7341.754190  13769.185874  20201.437429     73.560237
PR05  10251.788660   6831.486972  22349.019553     66.303604
PR06  22831.047458  -5879.859045   9760.961489    192.539068
PR07  20583.676003 -13226.221570  -7261.661209    -42.396844
PR08   7329.246201 -13848.344051 -20083.049807    -57.314504
PR09  11276.169617    218.482475 -22865.181022    -22.338148
PR10   9252.648176 -17192.087307 -16473.666615    -66.272815
PR11   1885.012323 -25435.053734    109.388882      3.510796
PR12  -6349.839197 -18265.407985  16671.372571    204.010231
PR13 -10963.832244   -668.914484  23000.455774    -50.554376
PR14  -9201.820590  17845.982436  15743.323463     60.874554
PR15  -2106.714284  25412.854887   -462.430986    105.469610
PR16   7264.477414  17267.606649 -17269.712247    -11.164809
PR17 -11443.873822   4333.219801 -22372.101240    399.023600
PR18   4171.492532  14433.917217 -20610.829024     66.238373
PR19  16592.399536  17376.101647  -8565.147927   -131.543159
PR20  20826.718731   9575.202840  11254.074279   -433.102583
PR21  10425.593642  -5113.540453  22714.577021   -186.813407
PR22  -5040.695271 -14800.543006  20112.337880    -97.232747
PR23 -20241.816913 -15462.192486   1302.703186    365.251356
PR24 -20921.779753  -8650.346472 -11738.478754     31.080289
EOF
